NORAD_CAT_ID,OBJECT_NAME,OBJECT_TYPE,EPOCH,MEAN_MOTION,ECCENTRICITY,INCLINATION,RA_OF_ASC_NODE,ARG_OF_PERICENTER,MEAN_ANOMALY,BSTAR,MEAN_MOTION_DOT,MEAN_MOTION_DDOT,TLE_LINE0,TLE_LINE1,TLE_LINE2,SEMIMAJOR_AXIS,PERIOD,APOGEE,PERIGEE,DECAYED
52690.0,STARLINK-4035,PAYLOAD,2023-10-16 05:42:08,15.08840205,0.0001404,53.215,114.1752,84.1883,275.9269,0.00012885,1.763e-05,0.0,0 STARLINK-4035,1 52690U 22053AL  23289.23760086  .00001763  00000-0  12885-3 0  9994,2 52690  53.2150 114.1752 0001404  84.1883 275.9269 15.08840205 78583,6917.88,95.438,540.716,538.773,0.0
52690.0,STARLINK-4035,PAYLOAD,2023-10-16 12:03:41,15.08832824,0.000146,53.2144,112.9865,83.3456,276.7702,0.00019529,2.821e-05,0.0,0 STARLINK-4035,1 52690U 22053AL  23289.50256562  .00002821  00000-0  19529-3 0  9991,2 52690  53.2144 112.9865 0001460  83.3456 276.7702 15.08832824 78990,6917.902,95.438,540.777,538.757,0.0
52690.0,STARLINK-4035,PAYLOAD,2023-10-16 16:49:51,15.08836415,0.0001382,53.2148,112.0947,82.6921,277.4228,0.00021088,3.069e-05,0.0,0 STARLINK-4035,1 52690U 22053AL  23289.70128524  .00003069  00000-0  21088-3 0  9997,2 52690  53.2148 112.0947 0001382  82.6921 277.4228 15.08836415 79024,6917.891,95.438,540.712,538.8,0.0
52690.0,STARLINK-4035,PAYLOAD,2023-10-17 11:54:28,15.0884515,0.0001509,53.2148,108.5273,81.0821,279.0342,0.00021445,3.127e-05,0.0,0 STARLINK-4035,1 52690U 22053AL  23290.49616173  .00003127  00000-0  21445-3 0  9999,2 52690  53.2148 108.5273 0001509  81.0821 279.0342 15.08845150 79143,6917.865,95.437,540.774,538.686,0.0
52690.0,STARLINK-4035,PAYLOAD,2023-10-17 18:16:00,15.08844396,0.0001464,53.2149,107.3381,78.5708,281.5449,0.00039791,6.051e-05,0.0,0 STARLINK-4035,1 52690U 22053AL  23290.76112265  .00006051  00000-0  39791-3 0  9994,2 52690  53.2149 107.3381 0001464  78.5708 281.5449 15.08844396 78816,6917.867,95.437,540.745,538.719,0.0
52690.0,STARLINK-4035,PAYLOAD,2023-10-18 14:56:01,15.08841316,0.0001542,53.2145,103.472,79.1126,281.004,0.0001088,1.444e-05,0.0,0 STARLINK-4035,1 52690U 22053AL  23291.62224167  .00001444  00000-0  10880-3 0  9994,2 52690  53.2145 103.4720 0001542  79.1126 281.0040 15.08841316 78949,6917.876,95.437,540.808,538.675,0.0
52690.0,STARLINK-4035,PAYLOAD,2023-10-19 11:36:01,15.08848909,0.0001498,53.2145,99.6056,86.2186,273.8978,8.8333e-05,1.118e-05,0.0,0 STARLINK-4035,1 52690U 22053AL  23292.48335550  .00001118  00000-0  88333-4 0  9995,2 52690  53.2145  99.6056 0001498  86.2186 273.8978 15.08848909 79442,6917.853,95.437,540.754,538.682,0.0
52690.0,STARLINK-4035,PAYLOAD,2023-10-19 17:57:34,15.08852746,0.0001475,53.2148,98.4159,87.6149,272.5012,0.00014448,2.013e-05,0.0,0 STARLINK-4035,1 52690U 22053AL  23292.74831240  .00002013  00000-0  14448-3 0  9991,2 52690  53.2148  98.4159 0001475  87.6149 272.5012 15.08852746 79118,6917.841,95.437,540.727,538.686,0.0
52690.0,STARLINK-4035,PAYLOAD,2023-10-20 11:26:49,15.08835308,7.23e-05,53.2181,95.1448,72.0047,288.1024,8.2362e-05,1.023e-05,0.0,0 STARLINK-4035,1 52690U 22053AL  23293.47696237  .00001023  00000-0  82362-4 0  9998,2 52690  53.2181  95.1448 0000723  72.0047 288.1024 15.08835308 79223,6917.895,95.438,540.26,539.26,0.0
52690.0,STARLINK-4035,PAYLOAD,2023-10-21 12:52:59,15.08836201,0.000176,53.2142,90.3885,90.5231,269.5963,4.0232e-05,3.52e-06,0.0,0 STARLINK-4035,1 52690U 22053AL  23294.53680387  .00000352  00000-0  40232-4 0  9999,2 52690  53.2142  90.3885 0001760  90.5231 269.5963 15.08836201 79750,6917.892,95.438,540.975,538.539,0.0
52690.0,STARLINK-4035,PAYLOAD,2023-10-21 17:39:08,15.08847035,0.0001457,53.2153,89.4963,86.0598,274.056,0.00014556,2.03e-05,0.0,0 STARLINK-4035,1 52690U 22053AL  23294.73551857  .00002030  00000-0  14556-3 0  9994,2 52690  53.2153  89.4963 0001457  86.0598 274.0560 15.08847035 79411,6917.859,95.437,540.732,538.716,0.0
52690.0,STARLINK-4035,PAYLOAD,2023-10-21 20:49:54,15.08850119,0.0001518,53.2153,88.9006,87.6952,272.4214,0.00021057,3.066e-05,0.0,0 STARLINK-4035,1 52690U 22053AL  23294.86799685  .00003066  00000-0  21057-3 0  9995,2 52690  53.2153  88.9006 0001518  87.6952 272.4214 15.08850119 79800,6917.849,95.437,540.765,538.664,0.0
52690.0,STARLINK-4035,PAYLOAD,2023-10-22 03:11:28,15.08832322,0.0001746,53.2162,87.7102,83.4751,276.644,1.2102e-05,-9.6e-07,0.0,0 STARLINK-4035,1 52690U 22053AL  23295.13296714 -.00000096  00000-0  12102-4 0  9994,2 52690  53.2162  87.7102 0001746  83.4751 276.6440 15.08832322 79474,6917.904,95.438,540.977,538.561,0.0
52690.0,STARLINK-4035,PAYLOAD,2023-10-22 14:19:10,15.0883032,0.0001735,53.2151,85.6294,99.085,261.0339,4.7534e-05,4.68e-06,0.0,0 STARLINK-4035,1 52690U 22053AL  23295.59664967  .00000468  00000-0  47534-4 0  9992,2 52690  53.2151  85.6294 0001735  99.0850 261.0339 15.08830320 79912,6917.91,95.438,540.975,538.575,0.0
52690.0,STARLINK-4035,PAYLOAD,2023-10-22 17:29:56,15.08833349,0.0001536,53.2155,85.0359,95.1405,264.9762,0.00011587,1.556e-05,0.0,0 STARLINK-4035,1 52690U 22053AL  23295.72912969  .00001556  00000-0  11587-3 0  9992,2 52690  53.2155  85.0359 0001536  95.1405 264.9762 15.08833349 79932,6917.901,95.438,540.828,538.703,0.0
52690.0,STARLINK-4035,PAYLOAD,2023-10-23 03:02:15,15.08841277,0.0001538,53.2159,83.251,90.9535,269.1633,7.6836e-05,9.35e-06,0.0,0 STARLINK-4035,1 52690U 22053AL  23296.12656692  .00000935  00000-0  76836-4 0  9994,2 52690  53.2159  83.2510 0001538  90.9535 269.1633 15.08841277 79623,6917.876,95.437,540.805,538.678,0.0
52690.0,STARLINK-4035,PAYLOAD,2023-10-24 09:14:35,15.08841156,0.0001528,53.2155,77.602,93.4537,266.6629,0.00022803,3.343e-05,0.0,0 STARLINK-4035,1 52690U 22053AL  23297.38513000  .00003343  00000-0  22803-3 0  9998,2 52690  53.2155  77.6020 0001528  93.4537 266.6629 15.08841156 79815,6917.877,95.437,540.799,538.685,0.0
52690.0,STARLINK-4035,PAYLOAD,2023-10-25 13:51:31,15.0884364,0.0001545,53.2162,72.2484,93.0638,267.0531,0.00014352,1.997e-05,0.0,0 STARLINK-4035,1 52690U 22053AL  23298.57744986  .00001997  00000-0  14352-3 0  9992,2 52690  53.2162  72.2484 0001545  93.0638 267.0531 15.08843640 79991,6917.869,95.437,540.803,538.665,0.0
52690.0,STARLINK-4035,PAYLOAD,2023-10-26 13:42:18,15.08844502,0.0001544,53.2173,67.7884,93.656,266.4609,0.00013314,1.832e-05,0.0,0 STARLINK-4035,1 52690U 22053AL  23299.57104887  .00001832  00000-0  13314-3 0  9998,2 52690  53.2173  67.7884 0001544  93.6560 266.4609 15.08844502 80512,6917.867,95.437,540.8,538.664,0.0
52690.0,STARLINK-4035,PAYLOAD,2023-10-26 15:17:41,15.08848184,0.0001361,53.2177,67.4905,95.5699,264.5448,0.00015628,2.201e-05,0.0,0 STARLINK-4035,1 52690U 22053AL  23299.63728644  .00002201  00000-0  15628-3 0  9999,2 52690  53.2177  67.4905 0001361  95.5699 264.5448 15.08848184 80158,6917.855,95.437,540.662,538.779,0.0
52690.0,STARLINK-4035,PAYLOAD,2023-10-27 11:57:42,15.08848987,0.0001497,53.2176,63.6249,94.7285,265.3878,0.00019752,2.858e-05,0.0,0 STARLINK-4035,1 52690U 22053AL  23300.49840390  .00002858  00000-0  19752-3 0  9999,2 52690  53.2176  63.6249 0001497  94.7285 265.3878 15.08848987 80650,6917.853,95.437,540.754,538.682,0.0
52690.0,STARLINK-4035,PAYLOAD,2023-10-27 15:08:28,15.08852801,0.0001522,53.218,63.0308,94.2112,265.9054,0.00024028,3.539e-05,0.0,0 STARLINK-4035,1 52690U 22053AL  23300.63088131  .00003539  00000-0  24028-3 0  9991,2 52690  53.2180  63.0308 0001522  94.2112 265.9054 15.08852801 80672,6917.841,95.437,540.759,538.653,0.0
52690.0,STARLINK-4035,PAYLOAD,2023-10-28 08:37:43,15.08835545,3.81e-05,53.2176,59.7584,7.636,352.4638,-1.8924e-06,-3.18e-06,0.0,0 STARLINK-4035,1 52690U 22053AL  23301.35953007 -.00000318  00000-0 -18924-5 0  9998,2 52690  53.2176  59.7584 0000381   7.6360 352.4638 15.08835545 80418,6917.894,95.438,540.023,539.495,0.0
52690.0,STARLINK-4035,PAYLOAD,2023-10-28 14:59:16,15.08832927,0.0001428,53.2179,58.5717,94.043,266.0726,-2.752e-05,-7.26e-06,0.0,0 STARLINK-4035,1 52690U 22053AL  23301.62449262 -.00000726  00000-0 -27520-4 0  9995,2 52690  53.2179  58.5717 0001428  94.0430 266.0726 15.08832927 80821,6917.902,95.438,540.755,538.779,0.0
52690.0,STARLINK-4035,PAYLOAD,2023-10-28 18:10:02,15.08837116,0.0001292,53.2175,57.9734,79.3165,280.7973,-4.9644e-05,-1.078e-05,0.0,0 STARLINK-4035,1 52690U 22053AL  23301.75697035 -.00001078  00000-0 -49644-4 0  9994,2 52690  53.2175  57.9734 0001292  79.3165 280.7973 15.08837116 80843,6917.889,95.438,540.648,538.86,0.0
52690.0,STARLINK-4035,PAYLOAD,2023-10-29 11:39:16,15.08854063,0.0001312,53.2178,54.703,78.2001,281.9139,0.00035463,5.363e-05,0.0,0 STARLINK-4035,1 52690U 22053AL  23302.48560353  .00005363  00000-0  35463-3 0  9999,2 52690  53.2178  54.7030 0001312  78.2001 281.9139 15.08854063 80588,6917.837,95.437,540.61,538.795,0.0
52690.0,STARLINK-4035,PAYLOAD,2023-10-29 13:14:39,15.08856702,0.000138,53.2177,54.4059,73.1934,286.921,0.00053562,8.251e-05,0.0,0 STARLINK-4035,1 52690U 22053AL  23302.55184379  .00008251  00000-0  53562-3 0  9996,2 52690  53.2177  54.4059 0001380  73.1934 286.9210 15.08856702 80968,6917.829,95.436,540.649,538.74,0.0
52690.0,STARLINK-4035,PAYLOAD,2023-10-30 08:19:17,15.08845915,9.62e-05,53.2176,50.8379,90.3475,269.7628,0.0002041,2.962e-05,0.0,0 STARLINK-4035,1 52690U 22053AL  23303.34672670  .00002962  00000-0  20410-3 0  9999,2 52690  53.2176  50.8379 0000962  90.3475 269.7628 15.08845915 80717,6917.862,95.437,540.393,539.062,0.0
52690.0,STARLINK-4035,PAYLOAD,2023-10-30 16:16:13,15.08830641,0.0001394,53.2176,49.3516,95.3103,264.8049,0.00019546,2.823e-05,0.0,0 STARLINK-4035,1 52690U 22053AL  23303.67792991  .00002823  00000-0  19546-3 0  9998,2 52690  53.2176  49.3516 0001394  95.3103 264.8049 15.08830641 80764,6917.909,95.438,540.738,538.81,0.0
52690.0,STARLINK-4035,PAYLOAD,2023-10-31 14:31:37,15.08837957,0.0001346,53.2174,45.1884,81.2099,278.9046,0.00028549,4.258e-05,0.0,0 STARLINK-4035,1 52690U 22053AL  23304.60529674  .00004258  00000-0  28549-3 0  9995,2 52690  53.2174  45.1884 0001346  81.2099 278.9046 15.08837957 81276,6917.887,95.438,540.683,538.82,0.0
